start=new Date('2022-10-06T00:00:00.000Z').valueOf();
sats=[{"DECAY_DATE":null,"RCS_SIZE":"LARGE","COUNTRY_CODE":"US","OBJECT_NAME":"STARLINK-1413","PERIAPSIS":"546.137","RA_OF_ASC_NODE":"273.9502","ARG_OF_PERICENTER":"84.6429","EPHEMERIS_TYPE":"0","TLE_LINE1":"1 45689U 20035AJ  22278.38475839 -.00000592  00000-0 -20811-4 0  9994","GP_ID":"214240213","REF_FRAME":"TEME","LAUNCH_DATE":"2020-06-04","BSTAR":"-0.00002081100000","REV_AT_EPOCH":"13018","APOAPSIS":"548.274","CENTER_NAME":"EARTH","NORAD_CAT_ID":"45689","MEAN_MOTION_DOT":"-0.00000592","OBJECT_TYPE":"PAYLOAD","TIME_SYSTEM":"UTC","TLE_LINE2":"2 45689  53.0536 273.9502 0001543  84.6429 275.4736 15.06402533130186","FILE":"3592692","SITE":"AFETR","INCLINATION":"53.0536","MEAN_MOTION":"15.06402533","MEAN_ELEMENT_THEORY":"SGP4","MEAN_MOTION_DDOT":"0.0000000000000","SEMIMAJOR_AXIS":"6925.341","EPOCH":"2022-10-05T09:14:03.124896","ECCENTRICITY":"0.00015430","CLASSIFICATION_TYPE":"U","MEAN_ANOMALY":"275.4736","PERIOD":"95.592","ELEMENT_SET_NO":"999","OBJECT_ID":"2020-035AJ"},{"SITE":"AFETR","TLE_LINE2":"2 45690  53.0001 272.5958 0001435  74.4916 285.6230 15.05585275130268","FILE":"3593077","TIME_SYSTEM":"UTC","OBJECT_TYPE":"PAYLOAD","MEAN_MOTION_DOT":"-0.00000500","MEAN_MOTION_DDOT":"0.0000000000000","MEAN_ELEMENT_THEORY":"SGP4","MEAN_MOTION":"15.05585275","INCLINATION":"53.0001","MEAN_ANOMALY":"285.6230","CLASSIFICATION_TYPE":"U","ECCENTRICITY":"0.00014350","EPOCH":"2022-10-05T16:30:55.334016","SEMIMAJOR_AXIS":"6927.847","OBJECT_ID":"2020-035AK","ELEMENT_SET_NO":"999","PERIOD":"95.644","PERIAPSIS":"548.718","OBJECT_NAME":"STARLINK-1414","COUNTRY_CODE":"US","DECAY_DATE":null,"RCS_SIZE":"LARGE","ARG_OF_PERICENTER":"74.4916","EPHEMERIS_TYPE":"0","RA_OF_ASC_NODE":"272.5958","REV_AT_EPOCH":"13026","BSTAR":"-0.00001512700000","LAUNCH_DATE":"2020-06-04","REF_FRAME":"TEME","GP_ID":"214272162","TLE_LINE1":"1 45690U 20035AK  22278.68814044 -.00000500  00000-0 -15127-4 0  9997","NORAD_CAT_ID":"45690","CENTER_NAME":"EARTH","APOAPSIS":"550.706"},{"BSTAR":"-0.00013709000000","REV_AT_EPOCH":"13032","LAUNCH_DATE":"2020-06-04","REF_FRAME":"TEME","GP_ID":"214272412","TLE_LINE1":"1 45691U 20035AL  22278.70175092 -.00002323  00000-0 -13709-3 0  9992","CENTER_NAME":"EARTH","NORAD_CAT_ID":"45691","APOAPSIS":"548.430","OBJECT_NAME":"STARLINK-1415","PERIAPSIS":"546.039","DECAY_DATE":null,"RCS_SIZE":"LARGE","COUNTRY_CODE":"US","EPHEMERIS_TYPE":"0","ARG_OF_PERICENTER":"67.3299","RA_OF_ASC_NODE":"272.5157","ECCENTRICITY":"0.00017260","EPOCH":"2022-10-05T16:50:31.279488","MEAN_ANOMALY":"292.7872","CLASSIFICATION_TYPE":"U","SEMIMAJOR_AXIS":"6925.370","OBJECT_ID":"2020-035AL","PERIOD":"95.593","ELEMENT_SET_NO":"999","SITE":"AFETR","TIME_SYSTEM":"UTC","OBJECT_TYPE":"PAYLOAD","MEAN_MOTION_DOT":"-0.00002323","TLE_LINE2":"2 45691  53.0551 272.5157 0001726  67.3299 292.7872 15.06393065130321","FILE":"3593077","MEAN_MOTION_DDOT":"0.0000000000000","INCLINATION":"53.0551","MEAN_MOTION":"15.06393065","MEAN_ELEMENT_THEORY":"SGP4"},{"SEMIMAJOR_AXIS":"6925.375","ECCENTRICITY":"0.00017090","EPOCH":"2022-10-05T16:39:54.582336","MEAN_ANOMALY":"300.0225","CLASSIFICATION_TYPE":"U","PERIOD":"95.593","ELEMENT_SET_NO":"999","OBJECT_ID":"2020-035AM","TIME_SYSTEM":"UTC","MEAN_MOTION_DOT":"-0.00000161","OBJECT_TYPE":"PAYLOAD","FILE":"3593077","TLE_LINE2":"2 45692  53.0546 272.5458 0001709  60.0933 300.0225 15.06391355130310","SITE":"AFETR","MEAN_MOTION":"15.06391355","INCLINATION":"53.0546","MEAN_ELEMENT_THEORY":"SGP4","MEAN_MOTION_DDOT":"0.0000000000000","GP_ID":"214273162","TLE_LINE1":"1 45692U 20035AM  22278.69438174 -.00000161  00000-0  81016-5 0  9999","REV_AT_EPOCH":"13031","BSTAR":"0.00000810160000","LAUNCH_DATE":"2020-06-04","REF_FRAME":"TEME","APOAPSIS":"548.424","CENTER_NAME":"EARTH","NORAD_CAT_ID":"45692","DECAY_DATE":null,"RCS_SIZE":"LARGE","COUNTRY_CODE":"US","OBJECT_NAME":"STARLINK-1416","PERIAPSIS":"546.057","ARG_OF_PERICENTER":"60.0933","EPHEMERIS_TYPE":"0","RA_OF_ASC_NODE":"272.5458"},{"GP_ID":"214239714","TLE_LINE1":"1 45693U 20035AN  22278.31472072  .00002384  00000-0  17886-3 0  9994","BSTAR":"0.00017886000000","REV_AT_EPOCH":"13025","REF_FRAME":"TEME","LAUNCH_DATE":"2020-06-04","APOAPSIS":"548.083","CENTER_NAME":"EARTH","NORAD_CAT_ID":"45693","RCS_SIZE":"LARGE","DECAY_DATE":null,"COUNTRY_CODE":"US","OBJECT_NAME":"STARLINK-1417","PERIAPSIS":"546.274","ARG_OF_PERICENTER":"96.7592","EPHEMERIS_TYPE":"0","RA_OF_ASC_NODE":"274.2704","SEMIMAJOR_AXIS":"6925.313","ECCENTRICITY":"0.00013060","EPOCH":"2022-10-05T07:33:11.870208","MEAN_ANOMALY":"263.3545","CLASSIFICATION_TYPE":"U","PERIOD":"95.591","ELEMENT_SET_NO":"999","OBJECT_ID":"2020-035AN","TIME_SYSTEM":"UTC","OBJECT_TYPE":"PAYLOAD","MEAN_MOTION_DOT":"0.00002384","FILE":"3592692","TLE_LINE2":"2 45693  53.0551 274.2704 0001306  96.7592 263.3545 15.06411547130255","SITE":"AFETR","INCLINATION":"53.0551","MEAN_MOTION":"15.06411547","MEAN_ELEMENT_THEORY":"SGP4","MEAN_MOTION_DDOT":"0.0000000000000"},{"ARG_OF_PERICENTER":"55.5048","EPHEMERIS_TYPE":"0","RA_OF_ASC_NODE":"274.2921","COUNTRY_CODE":"US","DECAY_DATE":null,"RCS_SIZE":"LARGE","PERIAPSIS":"540.350","OBJECT_NAME":"STARLINK-1419","APOAPSIS":"543.117","NORAD_CAT_ID":"45694","CENTER_NAME":"EARTH","TLE_LINE1":"1 45694U 20035AP  22278.21926001  .00030688  00000-0  19723-2 0  9999","GP_ID":"214240464","BSTAR":"0.00197230000000","REV_AT_EPOCH":"13024","REF_FRAME":"TEME","LAUNCH_DATE":"2020-06-04","MEAN_ELEMENT_THEORY":"SGP4","MEAN_MOTION":"15.08189797","INCLINATION":"53.0528","MEAN_MOTION_DDOT":"0.0000000000000","TLE_LINE2":"2 45694  53.0528 274.2921 0002000  55.5048 304.6131 15.08189797130242","FILE":"3592692","TIME_SYSTEM":"UTC","OBJECT_TYPE":"PAYLOAD","MEAN_MOTION_DOT":"0.00030688","SITE":"AFETR","ELEMENT_SET_NO":"999","PERIOD":"95.479","OBJECT_ID":"2020-035AP","SEMIMAJOR_AXIS":"6919.869","MEAN_ANOMALY":"304.6131","CLASSIFICATION_TYPE":"U","ECCENTRICITY":"0.00020000","EPOCH":"2022-10-05T05:15:44.064864"},{"SEMIMAJOR_AXIS":"6925.347","MEAN_ANOMALY":"291.4945","CLASSIFICATION_TYPE":"U","ECCENTRICITY":"0.00016790","EPOCH":"2022-10-05T15:32:11.780448","ELEMENT_SET_NO":"999","PERIOD":"95.592","OBJECT_ID":"2020-035AQ","TLE_LINE2":"2 45695  53.0549 252.7560 0001679  68.6223 291.4945 15.06400391130595","FILE":"3593077","TIME_SYSTEM":"UTC","MEAN_MOTION_DOT":"0.00000033","OBJECT_TYPE":"PAYLOAD","SITE":"AFETR","MEAN_ELEMENT_THEORY":"SGP4","MEAN_MOTION":"15.06400391","INCLINATION":"53.0549","MEAN_MOTION_DDOT":"0.0000000000000","GP_ID":"214271913","TLE_LINE1":"1 45695U 20035AQ  22278.64735857  .00000033  00000-0  21125-4 0  9996","REV_AT_EPOCH":"13059","BSTAR":"0.00002112500000","LAUNCH_DATE":"2020-06-04","REF_FRAME":"TEME","APOAPSIS":"548.375","NORAD_CAT_ID":"45695","CENTER_NAME":"EARTH","COUNTRY_CODE":"US","DECAY_DATE":null,"RCS_SIZE":"LARGE","PERIAPSIS":"546.050","OBJECT_NAME":"STARLINK-1420","EPHEMERIS_TYPE":"0","ARG_OF_PERICENTER":"68.6223","RA_OF_ASC_NODE":"252.7560"},{"DECAY_DATE":null,"RCS_SIZE":"LARGE","COUNTRY_CODE":"US","OBJECT_NAME":"STARLINK-1422","PERIAPSIS":"546.082","EPHEMERIS_TYPE":"0","ARG_OF_PERICENTER":"61.5469","RA_OF_ASC_NODE":"272.4139","TLE_LINE1":"1 45696U 20035AR  22278.72386426 -.00000342  00000-0 -40338-5 0  9993","GP_ID":"214272664","BSTAR":"-0.00000403380000","REV_AT_EPOCH":"13031","LAUNCH_DATE":"2020-06-04","REF_FRAME":"TEME","APOAPSIS":"548.372","CENTER_NAME":"EARTH","NORAD_CAT_ID":"45696","TIME_SYSTEM":"UTC","OBJECT_TYPE":"PAYLOAD","MEAN_MOTION_DOT":"-0.00000342","FILE":"3593077","TLE_LINE2":"2 45696  53.0530 272.4139 0001653  61.5469 298.5686 15.06395531130312","SITE":"AFETR","INCLINATION":"53.0530","MEAN_MOTION":"15.06395531","MEAN_ELEMENT_THEORY":"SGP4","MEAN_MOTION_DDOT":"0.0000000000000","SEMIMAJOR_AXIS":"6925.362","ECCENTRICITY":"0.00016530","EPOCH":"2022-10-05T17:22:21.872064","MEAN_ANOMALY":"298.5686","CLASSIFICATION_TYPE":"U","ELEMENT_SET_NO":"999","PERIOD":"95.592","OBJECT_ID":"2020-035AR"},{"NORAD_CAT_ID":"45697","CENTER_NAME":"EARTH","APOAPSIS":"548.405","REV_AT_EPOCH":"13063","BSTAR":"0.00000902010000","LAUNCH_DATE":"2020-06-04","REF_FRAME":"TEME","TLE_LINE1":"1 45697U 20035AS  22278.89894663 -.00000147  00000-0  90201-5 0  9995","GP_ID":"214272910","EPHEMERIS_TYPE":"0","ARG_OF_PERICENTER":"61.7602","RA_OF_ASC_NODE":"251.6495","PERIAPSIS":"546.033","OBJECT_NAME":"STARLINK-1351","COUNTRY_CODE":"US","RCS_SIZE":"LARGE","DECAY_DATE":null,"OBJECT_ID":"2020-035AS","PERIOD":"95.592","ELEMENT_SET_NO":"999","MEAN_ANOMALY":"298.3560","CLASSIFICATION_TYPE":"U","ECCENTRICITY":"0.00017130","EPOCH":"2022-10-05T21:34:28.988832","SEMIMAJOR_AXIS":"6925.354","MEAN_MOTION_DDOT":"0.0000000000000","MEAN_ELEMENT_THEORY":"SGP4","MEAN_MOTION":"15.06398182","INCLINATION":"53.0535","SITE":"AFETR","FILE":"3593077","TLE_LINE2":"2 45697  53.0535 251.6495 0001713  61.7602 298.3560 15.06398182130639","TIME_SYSTEM":"UTC","OBJECT_TYPE":"PAYLOAD","MEAN_MOTION_DOT":"-0.00000147"},{"ELEMENT_SET_NO":"999","PERIOD":"95.596","OBJECT_ID":"2020-035AT","SEMIMAJOR_AXIS":"6925.512","CLASSIFICATION_TYPE":"U","MEAN_ANOMALY":"282.2308","EPOCH":"2022-10-05T21:17:13.623072","ECCENTRICITY":"0.00013840","MEAN_ELEMENT_THEORY":"SGP4","MEAN_MOTION":"15.06346664","INCLINATION":"53.0557","MEAN_MOTION_DDOT":"0.0000000000000","FILE":"3593077","TLE_LINE2":"2 45698  53.0557 251.6846 0001384  77.8836 282.2308 15.06346664130635","OBJECT_TYPE":"PAYLOAD","MEAN_MOTION_DOT":"0.00010875","TIME_SYSTEM":"UTC","SITE":"AFETR","APOAPSIS":"548.336","NORAD_CAT_ID":"45698","CENTER_NAME":"EARTH","TLE_LINE1":"1 45698U 20035AT  22278.88696323  .00010875  00000-0  74893-3 0  9993","GP_ID":"214272163","REF_FRAME":"TEME","LAUNCH_DATE":"2020-06-04","REV_AT_EPOCH":"13063","BSTAR":"0.00074893000000","RA_OF_ASC_NODE":"251.6846","ARG_OF_PERICENTER":"77.8836","EPHEMERIS_TYPE":"0","COUNTRY_CODE":"US","RCS_SIZE":"LARGE","DECAY_DATE":null,"PERIAPSIS":"546.419","OBJECT_NAME":"STARLINK-1370"}];
